[{"OBJECT_NAME":"FLYING LAPTOP","OBJECT_ID":"2017-042G","EPOCH":"2026-03-09T23:28:27.762240","MEAN_MOTION":15.00523488,"ECCENTRICITY":0.00192138,"INCLINATION":97.4274,"RA_OF_ASC_NODE":228.6392,"ARG_OF_PERICENTER":94.5564,"MEAN_ANOMALY":265.7856,"EPHEMERIS_TYPE":0,"CLASSIFICATION_TYPE":"U","NORAD_CAT_ID":42831,"ELEMENT_SET_NO":999,"REV_AT_EPOCH":47157,"BSTAR":0.00042943592,"MEAN_MOTION_DOT":5.379e-5,"MEAN_MOTION_DDOT":0},{"OBJECT_NAME":"STARLINK-35186","OBJECT_ID":"2025-207V","EPOCH":"2026-03-09T17:36:36.958176","MEAN_MOTION":15.05644925,"ECCENTRICITY":3.438e-5,"INCLINATION":97.6037,"RA_OF_ASC_NODE":138.6399,"ARG_OF_PERICENTER":92.9692,"MEAN_ANOMALY":267.1574,"EPHEMERIS_TYPE":0,"CLASSIFICATION_TYPE":"U","NORAD_CAT_ID":65611,"ELEMENT_SET_NO":999,"REV_AT_EPOCH":2826,"BSTAR":0.00015310109,"MEAN_MOTION_DOT":2.149e-5,"MEAN_MOTION_DDOT":0}]
